GLOBALSTAR M068         
1 32266U 07048D   24337.84980128 -.00000061  00000+0  23957-3 0  9993
2 32266  51.9860 180.7528 0002087  75.4703 297.7967 12.62810492792756
GLOBALSTAR M079         
1 37188U 10054A   24337.82511014 -.00000082  00000+0  11887-3 0  9996
2 37188  52.0060  17.5451 0000418 157.9875  13.7074 12.62267811651651
GLOBALSTAR M074         
1 37189U 10054B   24337.85104243 -.00000079  00000+0  13625-3 0  9990
2 37189  52.0039  16.8166 0000233  81.2043  89.8126 12.62259755652262
GLOBALSTAR M076         
1 37190U 10054C   24337.87783503 -.00000073  00000+0  17019-3 0  9991
2 37190  52.0053  16.8913 0000098 204.8766 326.0867 12.62274201651983
GLOBALSTAR M077         
1 37191U 10054D   24337.78571132 -.00000089  00000+0  81959-4 0  9997
2 37191  52.0087 333.9722 0000294  64.6781 107.3410 12.62267715652346
GLOBALSTAR M075         
1 37192U 10054E   24337.96983546 -.00000084  00000+0  11118-3 0  9998
2 37192  51.9962  58.9741 0000544 113.2989  57.2957 12.62269584651064
GLOBALSTAR M073         
1 37193U 10054F   24337.73236363 -.00000095  00000+0  50131-4 0  9993
2 37193  52.0075 333.3673 0000168  46.6374 124.3885 12.62273373653020
GLOBALSTAR M083         
1 37739U 11033A   24337.79436510 -.00000068  00000+0  20187-3 0  9996
2 37739  51.9864 282.1787 0000572  75.7253 317.0812 12.62268650622057
GLOBALSTAR M088         
1 37740U 11033B   24337.84272956 -.00000064  00000+0  22165-3 0  9990
2 37740  51.9709 187.6877 0001096  90.6372 282.7067 12.62266142617605
GLOBALSTAR M091         
1 37741U 11033C   24337.77717385 -.00000096  00000+0  42496-4 0  9998
2 37741  51.9969 151.0920 0001253 108.9317 265.1393 12.62271431618385
GLOBALSTAR M085         
1 37742U 11033D   24337.60500694 -.00000109  00000+0 -28657-4 0  9993
2 37742  51.9857 102.8250 0001067 122.4019 250.1366 12.62269743618876
GLOBALSTAR M081         
1 37743U 11033E   24337.81343637 -.00000112  00000+0 -46173-4 0  9996
2 37743  51.9949 104.8561 0000826 132.1457 348.0189 12.62273809619040
GLOBALSTAR M089         
1 37744U 11033F   24337.94376036 -.00000091  00000+0  72568-4 0  9992
2 37744  51.9945  58.7261 0000287 112.2234  59.5324 12.62272694619905
GLOBALSTAR M084         
1 38040U 11080A   24337.64017929 -.00000070  00000+0  18909-3 0  9999
2 38040  52.0016 286.8348 0000717  31.7543 140.0930 12.62271565597845
GLOBALSTAR M080         
1 38041U 11080B   24337.82170913 -.00000076  00000+0  15775-3 0  9997
2 38041  52.0068 287.8210 0000616   8.8752  27.5574 12.62269352597997
GLOBALSTAR M082         
1 38042U 11080C   24337.22052742 -.00000047  00000+0  31613-3 0  9998
2 38042  52.0071 245.0762 0001224  84.0233  39.5535 12.62270426598621
GLOBALSTAR M092         
1 38043U 11080D   24337.75878891 -.00000095  00000+0  47635-4 0  9993
2 38043  52.0102 333.8033 0000430  58.0563 112.7695 12.62269925597148
GLOBALSTAR M090         
1 38044U 11080E   24337.62283354 -.00000035  00000+0  38332-3 0  9991
2 38044  51.9882 237.9124 0000946  79.7287 313.3653 12.62264377598793
GLOBALSTAR M086         
1 38045U 11080F   24337.11853862 -.00000048  00000+0  30898-3 0  9996
2 38045  51.9891 239.9832 0000055 166.5439 334.3266 12.62264117598679
GLOBALSTAR M097         
1 39072U 13005A   24337.74785026 -.00000095  00000+0  50257-4 0  9995
2 39072  52.0015 152.4152 0001011 108.9382 251.1595 12.62268117546009
GLOBALSTAR M093         
1 39073U 13005B   24337.72094794 -.00000105  00000+0 -65344-5 0  9996
2 39073  51.9784 146.1108 0001106 112.9794 247.1189 12.62276929545956
GLOBALSTAR M094         
1 39074U 13005C   24337.80037336 -.00000085  00000+0  10307-3 0  9998
2 39074  51.9975  60.0553 0000749 144.8152 215.2764 12.62265764547571
GLOBALSTAR M096         
1 39075U 13005D   24337.81356343 -.00000105  00000+0 -82582-5 0  9992
2 39075  52.0061 108.3758 0001100 125.8971 234.1998 12.62265234546494
GLOBALSTAR M078         
1 39076U 13005E   24337.86583926 -.00000068  00000+0  20134-3 0  9997
2 39076  51.9847 192.9929 0001855  95.5552 264.5526 12.62267323545123
GLOBALSTAR M095         
1 39077U 13005F   24337.89268690 -.00000064  00000+0  22432-3 0  9998
2 39077  51.9777 190.2083 0001497 103.2982 256.8052 12.62269267544984
GLOBALSTAR M087         
1 52888U 22064A   24337.71535222 -.00000078  00000+0  10180-3 0  9999
2 52888  51.9779 341.5934 0035494  22.2638 337.9792 13.30671660120060
